{
  "type": "FeatureCollection",
  "features": [
    {
      "type": "Feature",
      "properties": {
        "norad_id": 35065,
        "name": "COSMOS 2251 DEB",
        "group": "cosmos-2251-debris",
        "lat": 27.962921875497322,
        "lon": 6.669856727324204,
        "alt_km": 751.8929829767294,
        "timestamp": "2025-12-12T03:50:52.814346+00:00",
        "meta_object_name": "COSMOS 2251 DEB",
        "meta_object_id": "1993-036AHU",
        "meta_epoch": "2025-12-08T21:05:49.871616",
        "meta_mean_motion": 14.4570853,
        "meta_eccentricity": 0.0019714,
        "meta_inclination": 74.0196,
        "meta_ra_of_asc_node": 201.5431,
        "meta_arg_of_pericenter": 327.1177,
        "meta_mean_anomaly": 32.8753,
        "meta_ephemeris_type": 0,
        "meta_classification_type": "U",
        "meta_norad_cat_id": 35065,
        "meta_element_set_no": 999,
        "meta_rev_at_epoch": 68295,
        "meta_bstar": 0.00050947,
        "meta_mean_motion_dot": 1.782e-05,
        "meta_mean_motion_ddot": 0,
        "tle_line1": "1 35065U 93036AHU 25342.87904944  .00001782  00000+0  50947-3 0  9996",
        "tle_line2": "2 35065  74.0196 201.5431 0019714 327.1177  32.8753 14.45708530682959"
      },
      "geometry": {
        "type": "Point",
        "coordinates": [
          6.669856727324204,
          27.962921875497322
        ]
      }
    },
    {
      "type": "Feature",
      "properties": {
        "norad_id": 35071,
        "name": "COSMOS 2251 DEB",
        "group": "cosmos-2251-debris",
        "lat": -64.94974294277755,
        "lon": 32.708950193920685,
        "alt_km": 610.3655783457498,
        "timestamp": "2025-12-12T03:50:52.814356+00:00",
        "meta_object_name": "COSMOS 2251 DEB",
        "meta_object_id": "1993-036AJA",
        "meta_epoch": "2025-12-06T06:11:48.969024",
        "meta_mean_motion": 15.03269957,
        "meta_eccentricity": 0.00683754,
        "meta_inclination": 73.9314,
        "meta_ra_of_asc_node": 186.7627,
        "meta_arg_of_pericenter": 85.1943,
        "meta_mean_anomaly": 275.7048,
        "meta_ephemeris_type": 0,
        "meta_classification_type": "U",
        "meta_norad_cat_id": 35071,
        "meta_element_set_no": 999,
        "meta_rev_at_epoch": 67439,
        "meta_bstar": 0.0011992827,
        "meta_mean_motion_dot": 0.00017109,
        "meta_mean_motion_ddot": 0,
        "tle_line1": "1 35071U 93036AJA 25340.25820566  .00017109  00000+0  11993-2 0  9997",
        "tle_line2": "2 35071  73.9314 186.7627 0068375  85.1943 275.7048 15.03269957674390"
      },
      "geometry": {
        "type": "Point",
        "coordinates": [
          32.708950193920685,
          -64.94974294277755
        ]
      }
    },
    {
      "type": "Feature",
      "properties": {
        "norad_id": 35073,
        "name": "COSMOS 2251 DEB",
        "group": "cosmos-2251-debris",
        "lat": 2.9515285915697427,
        "lon": -27.39257504272796,
        "alt_km": 564.8347193233367,
        "timestamp": "2025-12-12T03:50:52.814366+00:00",
        "meta_object_name": "COSMOS 2251 DEB",
        "meta_object_id": "1993-036AJC",
        "meta_epoch": "2025-12-10T16:37:50.806560",
        "meta_mean_motion": 15.00404336,
        "meta_eccentricity": 0.00107016,
        "meta_inclination": 74.0016,
        "meta_ra_of_asc_node": 334.7492,
        "meta_arg_of_pericenter": 76.0723,
        "meta_mean_anomaly": 284.1653,
        "meta_ephemeris_type": 0,
        "meta_classification_type": "U",
        "meta_norad_cat_id": 35073,
        "meta_element_set_no": 999,
        "meta_rev_at_epoch": 67448,
        "meta_bstar": 0.0043502619,
        "meta_mean_motion_dot": 0.00055148,
        "meta_mean_motion_ddot": 0,
        "tle_line1": "1 35073U 93036AJC 25344.69294915  .00055148  00000+0  43503-2 0  9991",
        "tle_line2": "2 35073  74.0016 334.7492 0010701  76.0723 284.1653 15.00404336674488"
      },
      "geometry": {
        "type": "Point",
        "coordinates": [
          -27.39257504272796,
          2.9515285915697427
        ]
      }
    },
    {
      "type": "Feature",
      "properties": {
        "norad_id": 35284,
        "name": "COSMOS 2251 DEB",
        "group": "cosmos-2251-debris",
        "lat": -38.53935497474008,
        "lon": 98.65902268331314,
        "alt_km": 776.440991411062,
        "timestamp": "2025-12-12T03:50:52.814376+00:00",
        "meta_object_name": "COSMOS 2251 DEB",
        "meta_object_id": "1993-036AJN",
        "meta_epoch": "2025-12-11T12:36:30.542400",
        "meta_mean_motion": 14.38316207,
        "meta_eccentricity": 0.001676,
        "meta_inclination": 74.0493,
        "meta_ra_of_asc_node": 266.6592,
        "meta_arg_of_pericenter": 343.4318,
        "meta_mean_anomaly": 190.4692,
        "meta_ephemeris_type": 0,
        "meta_classification_type": "U",
        "meta_norad_cat_id": 35284,
        "meta_element_set_no": 999,
        "meta_rev_at_epoch": 65508,
        "meta_bstar": 0.00029322355,
        "meta_mean_motion_dot": 8.68e-06,
        "meta_mean_motion_ddot": 0,
        "tle_line1": "1 35284U 93036AJN 25345.52535350  .00000868  00000+0  29322-3 0  9992",
        "tle_line2": "2 35284  74.0493 266.6592 0016760 343.4318 190.4692 14.38316207655083"
      },
      "geometry": {
        "type": "Point",
        "coordinates": [
          98.65902268331314,
          -38.53935497474008
        ]
      }
    },
    {
      "type": "Feature",
      "properties": {
        "norad_id": 35287,
        "name": "COSMOS 2251 DEB",
        "group": "cosmos-2251-debris",
        "lat": 38.32001939763829,
        "lon": -69.71957464942962,
        "alt_km": 756.045937075477,
        "timestamp": "2025-12-12T03:50:52.814386+00:00",
        "meta_object_name": "COSMOS 2251 DEB",
        "meta_object_id": "1993-036AJR",
        "meta_epoch": "2025-12-11T13:25:38.612352",
        "meta_mean_motion": 14.36374891,
        "meta_eccentricity": 0.00175152,
        "meta_inclination": 74.0308,
        "meta_ra_of_asc_node": 278.3043,
        "meta_arg_of_pericenter": 15.3191,
        "meta_mean_anomaly": 159.0765,
        "meta_ephemeris_type": 0,
        "meta_classification_type": "U",
        "meta_norad_cat_id": 35287,
        "meta_element_set_no": 999,
        "meta_rev_at_epoch": 86875,
        "meta_bstar": 0.00023838047,
        "meta_mean_motion_dot": 6.73e-06,
        "meta_mean_motion_ddot": 0,
        "tle_line1": "1 35287U 93036AJR 25345.55947468  .00000673  00000+0  23838-3 0  9995",
        "tle_line2": "2 35287  74.0308 278.3043 0017515  15.3191 159.0765 14.36374891868758"
      },
      "geometry": {
        "type": "Point",
        "coordinates": [
          -69.71957464942962,
          38.32001939763829
        ]
      }
    },
    {
      "type": "Feature",
      "properties": {
        "norad_id": 35288,
        "name": "COSMOS 2251 DEB",
        "group": "cosmos-2251-debris",
        "lat": 47.69791175717853,
        "lon": 177.85498319854088,
        "alt_km": 684.9658456615534,
        "timestamp": "2025-12-12T03:50:52.814396+00:00",
        "meta_object_name": "COSMOS 2251 DEB",
        "meta_object_id": "1993-036AJS",
        "meta_epoch": "2025-12-10T08:39:21.633984",
        "meta_mean_motion": 14.65413781,
        "meta_eccentricity": 0.00395397,
        "meta_inclination": 73.951,
        "meta_ra_of_asc_node": 19.7768,
        "meta_arg_of_pericenter": 253.6203,
        "meta_mean_anomaly": 106.0616,
        "meta_ephemeris_type": 0,
        "meta_classification_type": "U",
        "meta_norad_cat_id": 35288,
        "meta_element_set_no": 999,
        "meta_rev_at_epoch": 87843,
        "meta_bstar": 0.0015164998,
        "meta_mean_motion_dot": 8.275e-05,
        "meta_mean_motion_ddot": 0,
        "tle_line1": "1 35288U 93036AJS 25344.36066706  .00008275  00000+0  15165-2 0  9990",
        "tle_line2": "2 35288  73.9510  19.7768 0039539 253.6203 106.0616 14.65413781878431"
      },
      "geometry": {
        "type": "Point",
        "coordinates": [
          177.85498319854088,
          47.69791175717853
        ]
      }
    },
    {
      "type": "Feature",
      "properties": {
        "norad_id": 35290,
        "name": "COSMOS 2251 DEB",
        "group": "cosmos-2251-debris",
        "lat": 17.186178315116646,
        "lon": 65.6675376936041,
        "alt_km": 630.0367381099868,
        "timestamp": "2025-12-12T03:50:52.814406+00:00",
        "meta_object_name": "COSMOS 2251 DEB",
        "meta_object_id": "1993-036AJU",
        "meta_epoch": "2025-12-11T13:10:12.161568",
        "meta_mean_motion": 14.80329109,
        "meta_eccentricity": 0.00023731,
        "meta_inclination": 74.0048,
        "meta_ra_of_asc_node": 61.7847,
        "meta_arg_of_pericenter": 200.4054,
        "meta_mean_anomaly": 159.7028,
        "meta_ephemeris_type": 0,
        "meta_classification_type": "U",
        "meta_norad_cat_id": 35290,
        "meta_element_set_no": 999,
        "meta_rev_at_epoch": 87940,
        "meta_bstar": 0.0031349739,
        "meta_mean_motion_dot": 0.00023959,
        "meta_mean_motion_ddot": 0,
        "tle_line1": "1 35290U 93036AJU 25345.54875187  .00023959  00000+0  31350-2 0  9995",
        "tle_line2": "2 35290  74.0048  61.7847 0002373 200.4054 159.7028 14.80329109879404"
      },
      "geometry": {
        "type": "Point",
        "coordinates": [
          65.6675376936041,
          17.186178315116646
        ]
      }
    }
  ]
}